[{"OBJECT_ID":"2010-008A","OBJECT_NAME":"GOES 15","NORAD_CAT_ID":"36411","OBJECT_TYPE":"PAYLOAD","PERIOD":"1436.220","INCLINATION":"0.3923","APOGEE":"35801.398","PERIGEE":"35776.637","ECCENTRICITY":"0.0002936","MEAN_MOTION":"1.00263149","TLE_LINE1":"1 36411U 10008A   16238.44723602 +.00000063 +00000-0 +00000-0 0  9991","TLE_LINE2":"2 36411 000.3923 272.5942 0002936 257.9849 189.4200 01.00263149023767","LAUNCH_DATE":"2010-03-04","LAUNCH_SITE":"AIR FORCE EASTERN TEST RANGE","OWNER":"UNITED STATES OF AMERICA","ORBIT_TYPE":"Geosynchronous","OPERATIONAL_STATUS":"Operational","satInfo":{"lng":-122.05189791817969,"lat":0.4057979099773012,"elevation":-8.180636295225526,"azimuth":77.05189791817966,"range":42580.1255324289,"height":35769.765276148246,"velocity":3.0754224947472224},"x":-258,"y":151,"dx":-1.6320873520678765,"dy":-2.606628933396024},{"OBJECT_ID":"2010-010A","OBJECT_NAME":"ECHOSTAR 14","NORAD_CAT_ID":"36499","OBJECT_TYPE":"PAYLOAD","PERIOD":"1436.118","INCLINATION":"0.0148","APOGEE":"35798.231","PERIGEE":"35775.825","ECCENTRICITY":"0.0002657","MEAN_MOTION":"1.00270245","TLE_LINE1":"1 36499U 10010A   16238.39507914 -.00000026 +00000-0 +00000-0 0  9990","TLE_LINE2":"2 36499 000.0148 159.7231 0002657 356.8691 200.8075 01.00270245010668","LAUNCH_DATE":"2010-03-20","LAUNCH_SITE":"TYURATAM MISSILE AND SPACE COMPLEX","OWNER":"UNITED STATES OF AMERICA","ORBIT_TYPE":"Geosynchronous","OPERATIONAL_STATUS":"Operational","satInfo":{"lng":-107.07217242682461,"lat":0.6194886562822675,"elevation":-7.969304214931912,"azimuth":62.07217242682458,"range":42568.16548700487,"height":35781.38764388469,"velocity":3.0747863327810876},"x":-291,"y":84,"dx":-0.9026837133936577,"dy":-2.9392980634551518},{"OBJECT_ID":"2010-016A","OBJECT_NAME":"SES 1","NORAD_CAT_ID":"36516","OBJECT_TYPE":"PAYLOAD","PERIOD":"1436.089","INCLINATION":"0.0608","APOGEE":"35791.945","PERIGEE":"35780.940","ECCENTRICITY":"0.0001305","MEAN_MOTION":"1.00272335","TLE_LINE1":"1 36516U 10016A   16239.34169606 -.00000143  00000-0  00000+0 0  9993","TLE_LINE2":"2 36516   0.0608 290.5307 0001305 244.6869 181.7926  1.00272335 23227","LAUNCH_DATE":"2010-04-24","LAUNCH_SITE":"TYURATAM MISSILE AND SPACE COMPLEX","OWNER":"SOCIÉTÉ EUROPÉENNE DES SATELLITES","ORBIT_TYPE":"Geosynchronous","OPERATIONAL_STATUS":"Operational","satInfo":{"lng":-104.69662827287823,"lat":0.43101455447998427,"elevation":-8.152351155759991,"azimuth":59.69662827287821,"range":42595.222534133456,"height":35787.831510608,"velocity":3.0746595949064854},"x":-294,"y":72,"dx":-0.7800442834498894,"dy":-2.9740649859086234},{"OBJECT_ID":"2010-021A","OBJECT_NAME":"ASTRA 3B","NORAD_CAT_ID":"36581","OBJECT_TYPE":"PAYLOAD","PERIOD":"1436.101","INCLINATION":"0.0561","APOGEE":"35798.900","PERIGEE":"35774.461","ECCENTRICITY":"0.0002898","MEAN_MOTION":"1.00271484","TLE_LINE1":"1 36581U 10021A   16239.07378310  .00000109  00000-0  00000+0 0  9996","TLE_LINE2":"2 36581   0.0561 338.6185 0002898 188.1095 218.0512  1.00271484 22730","LAUNCH_DATE":"2010-05-21","LAUNCH_SITE":"FRENCH GUIANA","OWNER":"SOCIÉTÉ EUROPÉENNE DES SATELLITES","ORBIT_TYPE":"Geosynchronous","OPERATIONAL_STATUS":"Operational","satInfo":{"lng":51.51722942164075,"lat":0.8057534995202208,"elevation":-7.790245885458824,"azimuth":263.48277057835924,"range":42531.9547114059,"height":35765.45041272725,"velocity":3.0753455560673464},"x":234,"y":-178,"dx":1.9137237885193952,"dy":2.407366102294819},{"OBJECT_ID":"2010-021B","OBJECT_NAME":"COMSATBW-2","NORAD_CAT_ID":"36582","OBJECT_TYPE":"PAYLOAD","PERIOD":"1436.112","INCLINATION":"0.0454","APOGEE":"35794.506","PERIGEE":"35779.301","ECCENTRICITY":"0.0001803","MEAN_MOTION":"1.00270691","TLE_LINE1":"1 36582U 10021B   16239.18868789  .00000060  00000-0  00000+0 0  9999","TLE_LINE2":"2 36582   0.0454 286.0287 0001803 255.5659 234.3642  1.00270691 23073","LAUNCH_DATE":"2010-05-21","LAUNCH_SITE":"FRENCH GUIANA","OWNER":"GERMANY","ORBIT_TYPE":"Geosynchronous","OPERATIONAL_STATUS":"Operational","satInfo":{"lng":14.760805509811155,"lat":1.5615536403296046,"elevation":-7.045331763594112,"azimuth":300.2391944901888,"range":42470.749805954656,"height":35787.57739335199,"velocity":3.074410388437021},"x":75,"y":-277,"dx":2.9729484074853842,"dy":0.7833115618702388},{"OBJECT_ID":"2010-024A","OBJECT_NAME":"BEIDOU G3","NORAD_CAT_ID":"36590","OBJECT_TYPE":"PAYLOAD","PERIOD":"1435.990","INCLINATION":"1.3275","APOGEE":"35804.394","PERIGEE":"35764.618","ECCENTRICITY":"0.0004717","MEAN_MOTION":"1.00279242","TLE_LINE1":"1 36590U 10024A   16238.98972933 -.00000382  00000-0  00000+0 0  9993","TLE_LINE2":"2 36590   1.3275  22.4265 0004717 298.5754 120.3720  1.00279242 22863","LAUNCH_DATE":"2010-06-02","LAUNCH_SITE":"Xichang Space Center, China","OWNER":"PEOPLES REPUBLIC OF CHINA","ORBIT_TYPE":"Geosynchronous","OPERATIONAL_STATUS":"Operational","satInfo":{"lng":53.699809911464904,"lat":2.053017358095223,"elevation":-6.559192931261481,"azimuth":261.3001900885351,"range":42435.64484272079,"height":35806.79086244784,"velocity":3.0738208480636353},"x":241,"y":-170,"dx":1.8197506701081891,"dy":2.47727311869956},{"OBJECT_ID":"2010-025A","OBJECT_NAME":"BADR-5 (ARABSAT 5B)","NORAD_CAT_ID":"36592","OBJECT_TYPE":"PAYLOAD","PERIOD":"1436.104","INCLINATION":"0.0115","APOGEE":"35806.764","PERIGEE":"35766.707","ECCENTRICITY":"0.000475","MEAN_MOTION":"1.00271288","TLE_LINE1":"1 36592U 10025A   16239.11923657  .00000116  00000-0  00000+0 0  9995","TLE_LINE2":"2 36592   0.0115 149.6180 0004750  21.0506 233.0154  1.00271288 22981","LAUNCH_DATE":"2010-06-03","LAUNCH_SITE":"TYURATAM MISSILE AND SPACE COMPLEX","OWNER":"ARAB SATELLITE COMMUNICATIONS ORGANIZATION","ORBIT_TYPE":"Geosynchronous","OPERATIONAL_STATUS":"Operational","satInfo":{"lng":62.154802830487526,"lat":-0.8590402192099513,"elevation":-9.41659039621703,"azimuth":252.8451971695125,"range":42712.7053203489,"height":35763.73897341831,"velocity":3.075398204776523},"x":265,"y":-134,"dx":1.4364701792654782,"dy":2.7193064450377173},{"OBJECT_ID":"2010-032A","OBJECT_NAME":"COMS 1","NORAD_CAT_ID":"36744","OBJECT_TYPE":"PAYLOAD","PERIOD":"1436.081","INCLINATION":"0.0236","APOGEE":"35790.451","PERIGEE":"35782.144","ECCENTRICITY":"9.85e-05","MEAN_MOTION":"1.00272852","TLE_LINE1":"1 36744U 10032A   16239.43002204 -.00000373  00000-0  00000+0 0  9999","TLE_LINE2":"2 36744   0.0236  99.2345 0000985 109.8254  49.0291  1.00272852 22736","LAUNCH_DATE":"2010-06-26","LAUNCH_SITE":"FRENCH GUIANA","OWNER":"SOUTH KOREA","ORBIT_TYPE":"Geosynchronous","OPERATIONAL_STATUS":"Operational","satInfo":{"lng":112.0671943550514,"lat":2.0179728027818897,"elevation":-6.593965841887469,"azimuth":202.9328056449486,"range":42437.72161955181,"height":35804.98758911306,"velocity":3.074042944567743},"x":278,"y":107,"dx":-1.154898574650887,"dy":2.8488505238632773},{"OBJECT_ID":"2010-032B","OBJECT_NAME":"ARABSAT 5A","NORAD_CAT_ID":"36745","OBJECT_TYPE":"PAYLOAD","PERIOD":"1436.021","INCLINATION":"0.0573","APOGEE":"35798.667","PERIGEE":"35771.565","ECCENTRICITY":"0.0003214","MEAN_MOTION":"1.00277066","TLE_LINE1":"1 36745U 10032B   16239.11160700  .00000126  00000-0  00000+0 0  9996","TLE_LINE2":"2 36745   0.0573 343.5122 0003214 173.7051 248.2705  1.00277066 22715","LAUNCH_DATE":"2010-06-26","LAUNCH_SITE":"FRENCH GUIANA","OWNER":"ARAB SATELLITE COMMUNICATIONS ORGANIZATION","ORBIT_TYPE":"Geosynchronous","OPERATIONAL_STATUS":"Operational","satInfo":{"lng":82.99705427291723,"lat":0.4181692521184642,"elevation":-8.17140292580138,"azimuth":232.0029457270828,"range":42564.68229695792,"height":35755.51968572884,"velocity":3.0760325494769134},"x":297,"y":-35,"dx":0.37503103474197086,"dy":3.0530849920075602},{"OBJECT_ID":"2010-032C","OBJECT_NAME":"ARIANE 5 R/B","NORAD_CAT_ID":"36746","OBJECT_TYPE":"ROCKET BODY","PERIOD":"597.726","INCLINATION":"1.3075","APOGEE":"34008.574","PERIGEE":"245.338","ECCENTRICITY":"0.7182111","MEAN_MOTION":"2.40912781","TLE_LINE1":"1 36746U 10032C   16238.59796432  .00002826  00000-0  75380-3 0  9991","TLE_LINE2":"2 36746   1.3075 205.0308 7182111 281.4705  11.7377  2.40912781 52793","LAUNCH_DATE":"2010-06-26","LAUNCH_SITE":"FRENCH GUIANA","OWNER":"FRANCE","ORBIT_TYPE":"Highly Elliptical Orbit","OPERATIONAL_STATUS":"N/A, derelict rocket body","satInfo":{"lng":98.58080019493565,"lat":1.6912310290592603,"elevation":-12.966268335610678,"azimuth":216.41919980506435,"range":25116.990072714118,"height":18109.076692681447,"velocity":3.9045367573330814},"x":149,"y":21,"dx":-0.5825725139556177,"dy":3.8608310705531474},{"OBJECT_ID":"2010-032D","OBJECT_NAME":"ARIANE 5 DEB (SYLDA)","NORAD_CAT_ID":"36747","OBJECT_TYPE":"DEBRIS","PERIOD":"437.319","INCLINATION":"1.9652","APOGEE":"25139.469","PERIGEE":"274.306","ECCENTRICITY":"0.6514313","MEAN_MOTION":"3.29278761","TLE_LINE1":"1 36747U 10032D   16238.73243782  .00013347  00000-0  33319-2 0  9998","TLE_LINE2":"2 36747   1.9652 354.3012 6514313 336.3550   3.8969  3.29278761 61768","LAUNCH_DATE":"2010-06-26","LAUNCH_SITE":"FRENCH GUIANA","OWNER":"FRANCE","ORBIT_TYPE":"Highly Elliptical Orbit","OPERATIONAL_STATUS":"N/A, space debris","satInfo":{"lng":132.79437850424756,"lat":-0.8660448831790406,"elevation":-16.368440820211347,"azimuth":182.20562149575244,"range":23779.49116886625,"height":16440.15759863199,"velocity":3.5593550487371273},"x":100,"y":89,"dx":-2.4181165910007976,"dy":2.611842360345884}]